IRIDIUM 166             
1 43570U 18061B   25036.33387914  .00000525  00000+0  18028-3 0  9992
2 43570  86.3932 264.3413 0002427  84.8113 275.3359 14.34215523342187
IRIDIUM 158             
1 43571U 18061C   25036.86029720  .00000417  00000+0  14176-3 0  9999
2 43571  86.3931 264.1308 0002103  92.2859 267.8578 14.34213198342229
IRIDIUM 165             
1 43572U 18061D   25036.88567755  .00000053  00000+0  11942-4 0  9992
2 43572  86.3931 264.1570 0002129  81.5491 278.5946 14.34217343342259
IRIDIUM 155             
1 43573U 18061E   25036.91738997  .00000532  00000+0  18278-3 0  9995
2 43573  86.3927 264.0374 0002318  92.4584 267.6878 14.34217319342223
IRIDIUM 154             
1 43574U 18061F   25036.89836306  .00000225  00000+0  73210-4 0  9993
2 43574  86.3930 264.1544 0002063  85.0536 275.0895 14.34217704342275
IRIDIUM 163             
1 43575U 18061G   25036.87933382  .00000196  00000+0  62819-4 0  9994
2 43575  86.3929 264.0933 0001948  89.9157 270.2262 14.34218269342247
IRIDIUM 156             
1 43576U 18061H   25036.92371570  .00000539  00000+0  18547-3 0  9995
2 43576  86.3928 264.0818 0002542  89.1750 270.9737 14.34214767342244
IRIDIUM 164             
1 43577U 18061J   25036.90469462  .00000134  00000+0  40947-4 0  9993
2 43577  86.3929 264.1221 0002070  80.1765 279.9665 14.34212032342284
